[
  {
    "name": "SYNCOM 2 (A 26)",
    "tle1": "1 00634U 63031A   24248.80684699 -.00000024  00000+0  00000+0 0  9991",
    "tle2": "2 00634  31.3664 309.5860 0010292 196.2743 196.3624  1.00287512223841"
  }
]
