{"epoch":"2024-09-04T19:21:51.579936","mean_motion":1.00287512,"eccentricity":0.0010292,"inclination":31.3664,"ra_of_asc_node":309.586,"arg_of_pericenter":196.2743,"mean_anomaly":196.3624,"element_set_no":999,"rev_at_epoch":22384,"launch_date":"1963-07-26","launch_site":"AFETR","period":1435.87,"apogee":35826.0,"perigee":35738,"rcs":2.1538,"orbit_center":"EA","orbit_type":"ORB","norad_cat_id":634,"object_name":"SYNCOM 2 (A 26)","object_id":"1963-031A","object_type":"PAY","ops_status_code":"-","owner":"US","categories":["communication"],"tags":["gpz-plus","gpz"]}